[{"OBJECT_NAME":"SJ-11-01","OBJECT_ID":"2009-061A","EPOCH":"2026-03-09T22:23:06.372960","MEAN_MOTION":14.6357145,"ECCENTRICITY":0.0010599,"INCLINATION":97.9987,"RA_OF_ASC_NODE":52.7837,"ARG_OF_PERICENTER":343.574,"MEAN_ANOMALY":101.0983,"EPHEMERIS_TYPE":0,"CLASSIFICATION_TYPE":"U","NORAD_CAT_ID":36088,"ELEMENT_SET_NO":999,"REV_AT_EPOCH":86997,"BSTAR":0.00019291799,"MEAN_MOTION_DOT":9.56e-6,"MEAN_MOTION_DDOT":0},{"OBJECT_NAME":"NOAA 16 DEB","OBJECT_ID":"2000-055TP","EPOCH":"2026-03-09T03:38:53.961216","MEAN_MOTION":14.60547221,"ECCENTRICITY":0.0016401,"INCLINATION":98.8197,"RA_OF_ASC_NODE":193.9649,"ARG_OF_PERICENTER":250.5773,"MEAN_ANOMALY":109.3653,"EPHEMERIS_TYPE":0,"CLASSIFICATION_TYPE":"U","NORAD_CAT_ID":42419,"ELEMENT_SET_NO":999,"REV_AT_EPOCH":51825,"BSTAR":0.0059942959,"MEAN_MOTION_DOT":0.00029235,"MEAN_MOTION_DDOT":0}]
